MEAN_MOTION;ECCENTRICITY;INCLINATION;RA_OF_ASC_NODE;ARG_OF_PERICENTER;MEAN_ANOMALY;BSTAR;MEAN_MOTION_DOT;MEAN_MOTION_DDOT;TYPE
14.39185775;0.0004033;86.4001;333.5013;69.2008;290.9622;1.8345E-5;7.7E-7;0;Iridium
14.39185913;0.0004015;86.4001;333.2964;68.5398;291.6229;2.1405E-5;8.6E-7;0;Iridium
14.39185913;0.0004015;86.4001;333.2964;68.5398;291.6229;2.1405E-5;8.6E-7;0;Iridium
14.39185985;0.0003996;86.4;333.0622;67.7269;292.4353;2.1769E-5;8.7E-7;0;Iridium
14.39186061;0.0003979;86.3999;332.8573;66.8493;293.3125;2.2841E-5;9.1E-7;0;Iridium
14.39186061;0.0003979;86.3999;332.8573;66.8493;293.3125;2.2841E-5;9.1E-7;0;Iridium
14.39186108;0.0003959;86.3999;332.6524;66.0877;294.0736;2.2337E-5;8.9E-7;0;Iridium
14.3918615;0.0003939;86.3998;332.4768;65.321;294.8398;2.218E-5;8.9E-7;0;Iridium
14.39186217;0.0003917;86.3997;332.3011;64.6541;295.5063;2.3865E-5;9.4E-7;0;Iridium
14.39186294;0.0003884;86.3997;332.0962;63.9384;296.2214;2.5011E-5;9.7E-7;0;Iridium
14.39186367;0.0003858;86.3996;331.8619;63.0277;297.1316;2.5146E-5;9.8E-7;0;Iridium
14.39186367;0.0003858;86.3996;331.8619;63.0277;297.1316;2.5146E-5;9.8E-7;0;Iridium
14.39186442;0.0003807;86.3994;331.452;61.5104;298.6478;2.4224E-5;9.5E-7;0;Iridium
14.39186731;0.0003777;86.3993;331.2469;60.7492;299.4084;3.1125E-5;1.16E-6;0;Iridium
14.39186647;0.000377;86.3994;331.2178;60.6303;299.5272;2.8148E-5;1.07E-6;0;Iridium
14.39186694;0.000374;86.3993;330.9835;59.8357;300.3212;2.7011E-5;1.04E-6;0;Iridium
14.39186814;0.0003709;86.3992;330.7492;58.9259;301.2303;2.8565E-5;1.08E-6;0;Iridium
14.39186814;0.0003709;86.3992;330.7492;58.9259;301.2303;2.8565E-5;1.08E-6;0;Iridium
14.39186863;0.0003685;86.3991;330.5735;58.2553;301.9004;2.7135E-5;1.04E-6;0;Iridium
14.3918705;0.0003622;86.3989;330.1343;56.5314;303.6231;2.6655E-5;1.03E-6;0;Iridium
14.39187215;0.0003564;86.3988;329.7828;55.1965;304.9569;2.7025E-5;1.04E-6;0;Iridium
14.39187227;0.0003556;86.3988;329.7243;54.9148;305.2384;2.5879E-5;1.0E-6;0;Iridium
14.39187263;0.0003527;86.3987;329.5486;54.2137;305.9389;2.3988E-5;9.4E-7;0;Iridium
14.3918739;0.0003494;86.3986;329.3144;53.448;306.704;2.4954E-5;9.7E-7;0;Iridium
14.3918739;0.0003494;86.3986;329.3144;53.448;306.704;2.4954E-5;9.7E-7;0;Iridium
14.39187545;0.0003421;86.3984;328.8751;51.7158;308.4347;2.3169E-5;9.2E-7;0;Iridium
14.39187688;0.0003391;86.3983;328.6994;51.0491;309.1009;2.6287E-5;1.01E-6;0;Iridium
14.39187774;0.0003358;86.3982;328.5237;50.324;309.8254;2.7156E-5;1.04E-6;0;Iridium
14.39187796;0.0003347;86.3982;328.4651;50.0421;310.1071;2.6522E-5;1.02E-6;0;Iridium
14.39187945;0.0003277;86.3981;328.1136;48.7194;311.4287;2.6862E-5;1.03E-6;0;Iridium
14.39187962;0.0003265;86.3981;328.055;48.5231;311.6247;2.6166E-5;1.01E-6;0;Iridium
14.39188067;0.0003222;86.398;327.85;47.8871;312.2601;2.7589E-5;1.05E-6;0;Iridium
14.39188118;0.000319;86.3979;327.6742;47.3594;312.7873;2.7128E-5;1.04E-6;0;Iridium
14.39188116;0.0003184;86.3979;327.6449;47.286;312.8607;2.6376E-5;1.02E-6;0;Iridium
14.39188272;0.0003105;86.3978;327.2642;46.0226;314.1229;2.8325E-5;1.08E-6;0;Iridium
14.39188256;0.0003095;86.3979;327.2056;45.9305;314.2147;2.6493E-5;1.02E-6;0;Iridium
14.39188363;0.0003026;86.3978;326.8541;44.5098;315.6343;2.6927E-5;1.03E-6;0;Iridium
14.39188355;0.0003012;86.3978;326.7662;44.1717;315.9722;2.5349E-5;9.8E-7;0;Iridium
14.39188418;0.0002976;86.3977;326.5904;43.4883;316.655;2.6099E-5;1.01E-6;0;Iridium
14.39188559;0.0002923;86.3976;326.2975;42.3183;317.8241;2.8498E-5;1.08E-6;0;Iridium
14.39188712;0.0002864;86.3974;326.0045;41.1556;318.9858;3.0762E-5;1.15E-6;0;Iridium
14.3918872;0.0002855;86.3974;325.9459;40.8147;319.3265;2.9745E-5;1.12E-6;0;Iridium
14.39188759;0.0002814;86.3974;325.7702;40.0012;320.1393;2.886E-5;1.09E-6;0;Iridium
14.39188964;0.0002717;86.3971;325.3307;38.3263;321.8128;3.0786E-5;1.15E-6;0;Iridium
14.39189032;0.0002678;86.397;325.1549;37.7681;322.3705;3.0679E-5;1.15E-6;0;Iridium
14.39189039;0.0002668;86.397;325.0963;37.4886;322.6498;2.9662E-5;1.12E-6;0;Iridium
14.39189128;0.0002627;86.3969;324.9497;37.0787;323.0592;3.1013E-5;1.16E-6;0;Iridium
14.39189221;0.000258;86.3968;324.7446;36.3253;323.8121;3.122E-5;1.17E-6;0;Iridium
14.39189215;0.0002566;86.3968;324.686;36.1425;323.9946;2.9521E-5;1.11E-6;0;Iridium
14.39189299;0.0002524;86.3967;324.5102;35.4313;324.7053;2.9389E-5;1.11E-6;0;Iridium
14.39189387;0.0002481;86.3966;324.3344;34.8639;325.2721;2.9895E-5;1.13E-6;0;Iridium
14.39189399;0.0002476;86.3966;324.3051;34.7456;325.3904;2.9406E-5;1.11E-6;0;Iridium
14.39189392;0.0002461;86.3966;324.2465;34.5969;325.539;2.8164E-5;1.07E-6;0;Iridium
14.39189438;0.0002429;86.3965;324.1293;34.1923;325.9432;2.8294E-5;1.08E-6;0;Iridium
14.39189529;0.0002366;86.3964;323.8362;33.1845;326.9502;2.5099E-5;9.8E-7;0;Iridium
14.39189638;0.0002323;86.3963;323.6604;32.5285;327.6057;2.609E-5;1.01E-6;0;Iridium
14.39189723;0.0002278;86.3962;323.4846;32.034;328.0996;2.6168E-5;1.01E-6;0;Iridium
14.39189751;0.0002263;86.3962;323.426;31.7747;328.3588;2.5714E-5;1.0E-6;0;Iridium
14.39189869;0.0002214;86.3961;323.2501;31.167;328.9659;2.6876E-5;1.03E-6;0;Iridium
14.3919007;0.0002105;86.3959;322.8106;29.5943;330.5374;2.6715E-5;1.03E-6;0;Iridium
14.3919007;0.0002105;86.3959;322.8106;29.5943;330.5374;2.6715E-5;1.03E-6;0;Iridium
14.39190208;0.0002021;86.3958;322.4881;28.5667;331.5642;2.6986E-5;1.04E-6;0;Iridium
14.39190358;0.0001953;86.3957;322.2243;27.675;332.4552;2.7959E-5;1.07E-6;0;Iridium
14.39190414;0.000194;86.3957;322.1657;27.3697;332.7604;2.9062E-5;1.1E-6;0;Iridium
14.39190627;0.0001837;86.3955;321.7554;25.6627;334.4663;3.0831E-5;1.15E-6;0;Iridium
14.3919082;0.0001689;86.3954;321.2277;24.2385;335.8892;3.1519E-5;1.18E-6;0;Iridium
14.39190945;0.0001605;86.3953;320.9053;23.1835;336.9436;3.0448E-5;1.14E-6;0;Iridium
14.39191111;0.0001507;86.3952;320.5534;22.1751;337.9512;3.2422E-5;1.2E-6;0;Iridium
14.39191121;0.0001495;86.3952;320.4948;22;338.1262;3.1379E-5;1.17E-6;0;Iridium
14.39191231;0.0001403;86.395;320.1137;20.8616;339.2639;2.9943E-5;1.13E-6;0;Iridium
14.39191237;0.0001395;86.395;320.0843;20.7848;339.3407;2.9474E-5;1.11E-6;0;Iridium
14.39191379;0.0001236;86.3949;319.5273;18.723;341.4014;2.7251E-5;1.04E-6;0;Iridium
14.39191479;0.0001152;86.3948;319.2342;17.6941;342.4297;2.541E-5;9.9E-7;0;Iridium
14.39191571;0.0001047;86.3946;318.853;16.6914;343.4319;2.2475E-5;9.0E-7;0;Iridium
14.39191576;0.0001039;86.3946;318.8237;16.6044;343.5188;2.1871E-5;8.8E-7;0;Iridium
14.39191669;9.15E-5;86.3944;318.3839;15.3115;344.8111;1.8282E-5;7.7E-7;0;Iridium
14.39191692;8.8E-5;86.3944;318.2666;14.8281;345.2943;1.8039E-5;7.6E-7;0;Iridium
14.39191792;7.87E-5;86.3943;317.9733;14.92;345.2021;1.6751E-5;7.2E-7;0;Iridium
14.39191901;6.65E-5;86.3942;317.5629;14.6914;345.4304;1.5273E-5;6.7E-7;0;Iridium
14.39191963;5.43E-5;86.3941;317.1524;14.7522;345.3692;1.3156E-5;6.1E-7;0;Iridium
14.39191963;5.43E-5;86.3941;317.1524;14.7522;345.3692;1.3156E-5;6.1E-7;0;Iridium
14.39191979;4.96E-5;86.3941;317.0058;14.4186;345.7026;1.3043E-5;6.0E-7;0;Iridium
14.39192042;4.22E-5;86.3941;316.7712;15.5266;344.5945;1.3517E-5;6.2E-7;0;Iridium
14.39192067;3.49E-5;86.394;316.5072;16.0135;344.1075;1.2361E-5;5.8E-7;0;Iridium
14.39192101;3.03E-5;86.394;316.3313;17.6111;342.5098;1.2655E-5;5.9E-7;0;Iridium
14.39192139;2.54E-5;86.394;316.1553;19.8721;340.2488;1.409E-5;6.4E-7;0;Iridium
14.39192179;1.78E-5;86.3939;315.8914;28.2772;331.8436;1.3473E-5;6.2E-7;0;Iridium
14.39192179;1.78E-5;86.3939;315.8914;28.2772;331.8436;1.3473E-5;6.2E-7;0;Iridium
14.39192193;1.37E-5;86.394;315.7447;35.3634;324.7573;1.4188E-5;6.4E-7;0;Iridium
14.39192282;8.9E-6;86.394;315.4809;62.0474;298.0733;1.5653E-5;6.8E-7;0;Iridium
14.39192285;8.4E-6;86.394;315.4515;66.6752;293.4456;1.5554E-5;6.8E-7;0;Iridium
14.39192457;1.17E-5;86.3939;315.0409;132.7701;227.3507;1.9927E-5;8.2E-7;0;Iridium
14.39192492;1.52E-5;86.3939;314.8943;144.2494;215.8715;2.1081E-5;8.5E-7;0;Iridium
14.39192594;2.28E-5;86.3938;314.601;155.0578;205.0632;2.1733E-5;8.7E-7;0;Iridium
14.39192635;2.65E-5;86.3938;314.4837;157.9281;202.1929;2.2874E-5;9.1E-7;0;Iridium
14.39192743;3.32E-5;86.3937;314.2197;161.0278;199.0933;2.3661E-5;9.3E-7;0;Iridium
14.39192795;3.83E-5;86.3937;314.0437;162.719;197.4022;2.4067E-5;9.4E-7;0;Iridium
14.39192911;4.71E-5;86.3936;313.7798;162.6182;197.5033;2.4266E-5;9.5E-7;0;Iridium
14.39192962;5.16E-5;86.3936;313.6331;162.957;197.1646;2.4999E-5;9.7E-7;0;Iridium
14.39193048;5.91E-5;86.3935;313.369;162.803;197.3189;2.3401E-5;9.2E-7;0;Iridium
14.39193056;5.99E-5;86.3935;313.3397;162.8973;197.2246;2.3225E-5;9.2E-7;0;Iridium
14.39193093;6.33E-5;86.3935;313.2224;163.2255;196.8964;2.3571E-5;9.3E-7;0;Iridium
14.39193168;7.01E-5;86.3934;312.9584;162.9259;197.1964;2.158E-5;8.7E-7;0;Iridium
14.39193171;7.1E-5;86.3934;312.9291;162.9338;197.1884;2.1152E-5;8.5E-7;0;Iridium
14.39193211;7.59E-5;86.3934;312.7824;162.9638;197.1586;2.0986E-5;8.5E-7;0;Iridium
14.39193265;8.38E-5;86.3933;312.5184;162.0742;198.0486;1.8144E-5;7.6E-7;0;Iridium
14.39193265;8.38E-5;86.3933;312.5184;162.0742;198.0486;1.8144E-5;7.6E-7;0;Iridium
14.39193265;8.38E-5;86.3933;312.5184;162.0742;198.0486;1.8144E-5;7.6E-7;0;Iridium
14.39193312;8.85E-5;86.3933;312.3717;161.903;198.22;1.8741E-5;7.8E-7;0;Iridium
14.39193396;9.66E-5;86.3933;312.0784;161.1588;198.9647;1.6539E-5;7.1E-7;0;Iridium
14.39193426;0.0001003;86.3933;311.961;161.0441;199.0795;1.6746E-5;7.2E-7;0;Iridium
14.39193546;0.0001086;86.3933;311.6677;160.3644;199.7596;1.6705E-5;7.2E-7;0;Iridium
14.39193601;0.0001132;86.3933;311.521;160.2238;199.9004;1.7621E-5;7.5E-7;0;Iridium
14.39193729;0.00012;86.3933;311.257;159.1857;200.9391;1.8835E-5;7.8E-7;0;Iridium
14.39193791;0.0001249;86.3933;311.1103;158.8679;201.2571;2.0439E-5;8.3E-7;0;Iridium
14.39193981;0.0001365;86.3933;310.6997;157.7536;202.3722;2.2964E-5;9.1E-7;0;Iridium
14.39194177;0.0001438;86.3933;310.4064;156.9887;203.1376;2.7025E-5;1.04E-6;0;Iridium
14.39194367;0.000156;86.3934;309.9957;155.7626;204.3646;2.9063E-5;1.1E-6;0;Iridium
14.39194405;0.000161;86.3934;309.8491;155.3799;204.7477;2.9792E-5;1.12E-6;0;Iridium
